OBJECT_NAME,OBJECT_ID,EPOCH,MEAN_MOTION,ECCENTRICITY,INCLINATION,RA_OF_ASC_NODE,ARG_OF_PERICENTER,MEAN_ANOMALY,EPHEMERIS_TYPE,CLASSIFICATION_TYPE,NORAD_CAT_ID,ELEMENT_SET_NO,REV_AT_EPOCH,BSTAR,MEAN_MOTION_DOT,MEAN_MOTION_DDOT
STARLINK-4421,2022-099Z,2026-06-28T21:14:02.867424,15.05588662,.00006662,97.3000,299.4652,52.9156,307.2132,0,U,53488,999,21278,.95930652E-3,.13788E-3,0
STARLINK-4392,2022-099AA,2026-06-28T19:20:24.674496,15.05656326,.00018986,97.3127,298.1909,148.2312,211.9031,0,U,53489,999,21269,.18605317E-4,.212E-5,0
STARLINK-4387,2022-099AB,2026-06-28T22:00:01.999584,15.34903806,.00020348,97.6049,303.4610,86.7823,302.3378,0,U,53490,999,579,.82009754E-3,.27747E-3,0
STARLINK-4450,2022-099AC,2026-06-28T22:00:01.999584,15.60747085,.00013822,97.6041,304.7102,84.8148,254.2772,0,U,53491,999,577,-.6644082E-2,-.517721E-2,0
STARLINK-4451,2022-099AD,2026-06-28T22:00:01.999584,15.45816724,.00014715,97.6012,302.0560,74.7638,328.0548,0,U,53492,999,580,.97640609E-2,.50449E-2,0
STARLINK-4340,2022-099AF,2026-06-28T21:10:01.941888,15.05649616,.00010366,97.2993,299.4453,95.3537,264.7809,0,U,53494,999,21278,.11541084E-3,.1609E-4,0
STARLINK-4429,2022-099AG,2026-06-28T22:07:56.072928,15.05518931,.00010586,97.3024,298.3075,165.9273,194.1984,0,U,53495,999,21271,.16318396E-2,.23483E-3,0
STARLINK-4453,2022-099AJ,2026-06-28T19:08:26.702592,15.05661074,.00018352,97.3004,298.1630,149.7034,210.4300,0,U,53497,999,21269,-.5202666E-4,-.807E-5,0
STARLINK-4439,2022-099AK,2026-06-28T22:01:50.409984,15.05715645,.00023283,97.2987,299.3810,112.7849,247.3625,0,U,53498,999,21278,-.9582281E-3,-.1388E-3,0
STARLINK-4454,2022-099AL,2026-06-28T22:00:01.999584,15.37422007,.00014485,97.6031,303.4573,78.5813,52.8567,0,U,53499,999,585,.10424632E-2,.38308E-3,0
STARLINK-4455,2022-099AM,2026-06-28T22:00:01.999584,15.79204912,.00009319,97.6048,305.4422,58.3188,203.5078,0,U,53500,999,591,.31017199E-2,.59172E-2,0
STARLINK-4434,2022-099AN,2026-06-28T22:00:01.999584,15.66638181,.0001343,97.6097,304.1085,71.9698,356.7859,0,U,53501,999,584,-.16492779E-2,-.168975E-2,0
STARLINK-4435,2022-099AP,2026-06-28T22:00:01.999584,15.65451049,.00013993,97.6044,305.3462,73.4320,48.2079,0,U,53502,999,585,-.3738925E-2,-.357053E-2,0
STARLINK-4448,2022-099AR,2026-06-28T22:00:01.999584,15.56371462,.00014959,97.6038,304.1909,86.7193,217.4190,0,U,53504,999,591,.26454455E-3,.1856E-3,0
STARLINK-4446,2022-099AS,2026-06-28T21:48:26.427744,15.80484822,.00035092,97.6055,312.0890,194.1111,166.0058,0,U,53505,999,21350,.49364583E-3,.9404E-3,0
STARLINK-4437,2022-099AT,2026-06-28T22:00:01.999584,15.69302515,.00009922,97.6043,305.4794,60.2375,43.4359,0,U,53506,999,539,.32243503E-2,.393415E-2,0
STARLINK-4443,2022-099AV,2026-06-28T19:18:22.811616,15.05653635,.00014542,97.3056,299.3542,117.6344,242.5032,0,U,53508,999,21277,.40275287E-4,.525E-5,0
STARLINK-4402,2022-099AW,2026-06-28T22:00:01.999584,15.60770757,.0001143,97.6039,303.8572,66.2710,256.3613,0,U,53509,999,589,.11275762E-2,.94616E-3,0
STARLINK-4503,2022-101B,2026-06-28T14:22:49.756800,15.08830684,.00012196,53.1596,296.0638,89.3399,270.7732,0,U,53528,999,21290,.41173732E-4,.367E-5,0
STARLINK-4478,2022-101C,2026-06-28T17:36:11.805408,15.15044451,.00025364,53.2169,292.2503,50.0590,310.0627,0,U,53529,999,21297,.11681812E-2,.21858E-3,0
STARLINK-4482,2022-101D,2026-06-28T14:33:27.630720,15.08832686,.000123,53.1606,296.2488,92.6407,267.4725,0,U,53530,999,21290,.79945576E-4,.984E-5,0
STARLINK-4487,2022-101E,2026-06-28T14:06:56.197152,15.08831570,.00013226,53.1596,296.1107,89.7389,270.3754,0,U,53531,999,21290,.26093804E-4,.127E-5,0
STARLINK-4483,2022-101F,2026-06-28T14:54:37.315872,15.08831440,.00009972,53.1587,295.9620,90.3904,269.7202,0,U,53532,999,21291,.71903238E-4,.856E-5,0
STARLINK-4493,2022-101G,2026-06-28T14:49:19.304256,15.08829696,.00012326,53.1605,295.9686,92.4049,267.7083,0,U,53533,999,21291,.49769517E-4,.504E-5,0
STARLINK-4138,2022-101J,2026-06-28T17:54:49.483584,15.08807332,.00005387,53.1598,295.4016,62.8185,297.2861,0,U,53535,999,21293,-.1066411E-3,-.1983E-4,0
STARLINK-4053,2022-101K,2026-06-28T22:00:01.999584,15.18594041,.0001976,53.1607,284.3733,49.0148,27.4647,0,U,53536,999,559,.21687096E-2,.45373E-3,0
STARLINK-4120,2022-101L,2026-06-28T14:45:23.914368,15.08824651,.00010468,53.1609,295.9624,78.8430,281.2679,0,U,53537,999,21291,.41301624E-4,.369E-5,0
STARLINK-4123,2022-101N,2026-06-28T17:49:29.944416,15.08828239,.0001096,53.1599,295.4170,87.2003,272.9114,0,U,53539,999,21293,.15118582E-3,.2118E-4,0
STARLINK-4486,2022-101P,2026-06-28T16:32:45.795552,15.08841443,.00010848,53.1606,286.0123,93.8978,266.2138,0,U,53540,999,21374,.16519575E-3,.2342E-4,0
STARLINK-4485,2022-101Q,2026-06-28T17:38:54.024864,15.08829105,.00011681,53.1605,295.4509,84.3281,275.7844,0,U,53541,999,21362,.4590025E-4,.442E-5,0
STARLINK-4489,2022-101R,2026-06-28T22:00:01.999584,15.20418161,.00005072,53.1602,283.9779,87.1282,274.4538,0,U,53542,999,560,.26155076E-3,.5455E-4,0
STARLINK-4297,2022-101S,2026-06-28T22:00:01.999584,15.25113577,.00006128,53.1603,283.8786,76.3930,290.8246,0,U,53543,999,574,.44091405E-3,.10861E-3,0
STARLINK-4303,2022-101T,2026-06-28T22:00:01.999584,15.21227372,.00005535,53.1604,284.1215,134.8128,192.3844,0,U,53544,999,575,.25283108E-3,.5393E-4,0
STARLINK-4475,2022-101U,2026-06-28T22:00:01.999584,15.20328009,.0001565,53.1587,284.2065,91.9556,129.7312,0,U,53545,999,579,.30028012E-3,.6294E-4,0
STARLINK-4477,2022-101V,2026-06-28T22:00:01.999584,15.20422330,.00005848,53.1609,273.6279,36.9305,217.5628,0,U,53546,999,569,.1298661E-3,.2545E-4,0
STARLINK-4474,2022-101W,2026-06-28T22:00:01.999584,15.21316659,.0000504,53.1595,284.1207,122.9058,184.5156,0,U,53547,999,575,.29988643E-3,.6476E-4,0
STARLINK-4513,2022-101X,2026-06-28T13:31:09.094944,15.08836529,.00011868,53.1599,286.2240,81.9195,278.1931,0,U,53548,999,21304,.14413112E-3,.2007E-4,0
STARLINK-4514,2022-101AA,2026-06-28T13:36:27.623232,15.08834061,.00010533,53.1603,286.2076,86.2823,273.8289,0,U,53551,999,21370,.16931534E-4,-.18E-6,0
STARLINK-4495,2022-101AB,2026-06-28T14:50:38.922720,15.08829219,.00011421,53.1599,285.9758,84.6593,275.4529,0,U,53552,999,21370,.88213506E-4,.1116E-4,0
STARLINK-4501,2022-101AC,2026-06-28T14:40:02.020800,15.08829536,.00011484,53.1600,285.8817,90.6336,269.4787,0,U,53553,999,21371,.12329256E-3,.1674E-4,0
STARLINK-4506,2022-101AD,2026-06-28T14:41:26.047392,15.08829960,.00011329,53.1598,286.0121,91.1303,268.9818,0,U,53554,999,21305,.12260297E-3,.1663E-4,0
STARLINK-4504,2022-101AE,2026-06-28T16:31:20.024544,15.08832284,.00011315,53.1596,285.6607,90.5445,269.5676,0,U,53555,999,21372,.6093307E-4,.682E-5,0
STARLINK-4505,2022-101AF,2026-06-28T14:29:27.537216,15.08826418,.0001182,53.1595,286.0403,84.1174,275.9952,0,U,53556,999,21305,.58396353E-4,.641E-5,0
STARLINK-4502,2022-101AG,2026-06-28T14:45:21.127968,15.08829842,.00012451,53.1588,285.9912,87.7666,272.3468,0,U,53557,999,21370,.12575711E-3,.1714E-4,0
STARLINK-4494,2022-101AH,2026-06-28T14:32:43.104480,15.08831219,.00010095,53.1585,280.7516,85.3339,274.7768,0,U,53558,999,21378,.96444354E-4,.1247E-4,0
STARLINK-4564,2022-101AK,2026-06-28T15:34:24.299040,15.08831414,.00012361,53.1596,276.0235,93.0469,267.0664,0,U,53560,999,21319,.54876116E-4,.585E-5,0
STARLINK-4563,2022-101AL,2026-06-28T12:48:46.189152,15.08827286,.00011574,53.1601,286.3536,90.0028,270.1096,0,U,53561,999,21304,.1035771E-3,.136E-4,0
STARLINK-4565,2022-101AM,2026-06-28T22:00:01.999584,15.22396106,.00008811,53.1602,273.8728,41.5809,101.8786,0,U,53562,999,570,.37500004E-3,.8453E-4,0
STARLINK-4561,2022-101AN,2026-06-28T22:00:01.999584,15.22605889,.00003411,53.1592,274.1741,84.9642,264.7494,0,U,53563,999,569,.18212949E-3,.3959E-4,0
STARLINK-4577,2022-101AP,2026-06-28T22:00:01.999584,15.20436479,.00004071,53.1589,274.1521,60.6785,299.6610,0,U,53564,999,575,.12889271E-3,.2525E-4,0
STARLINK-4575,2022-101AQ,2026-06-28T22:00:01.999584,15.21540025,.00003332,53.1603,274.2222,90.6379,232.3278,0,U,53565,999,580,.19142251E-3,.4042E-4,0
STARLINK-4576,2022-101AR,2026-06-28T22:00:01.999584,15.21187216,.00009764,53.1606,273.8743,76.5858,65.7346,0,U,53566,999,580,.33387405E-3,.7219E-4,0
STARLINK-4585,2022-101AS,2026-06-28T16:59:10.756896,15.08831184,.00011828,53.1593,275.6782,86.3990,273.7137,0,U,53567,999,21320,.52436041E-4,.547E-5,0
STARLINK-4583,2022-101AT,2026-06-28T22:00:01.999584,15.20174388,.00016995,53.1588,274.0255,34.9146,29.6793,0,U,53568,999,569,.19864698E-3,.4034E-4,0
STARLINK-4582,2022-101AU,2026-06-28T22:00:01.999584,15.19604046,.00014202,53.1590,274.1143,55.2938,323.8723,0,U,53569,999,575,-.33272103E-4,-.1038E-4,0
STARLINK-4550,2022-101AV,2026-06-28T22:00:01.999584,15.23211608,.00011819,53.1608,273.8470,59.5468,96.9998,0,U,53570,999,570,.39036836E-3,.9034E-4,0
STARLINK-4584,2022-101AW,2026-06-28T22:00:01.999584,15.19576075,.00016172,53.1597,273.9581,71.9545,27.8396,0,U,53571,999,575,.42994603E-3,.8952E-4,0
STARLINK-4555,2022-101AX,2026-06-28T22:00:01.999584,15.20082849,.00018856,53.1606,273.8009,78.5123,100.7237,0,U,53572,999,579,.13336474E-3,.2594E-4,0
STARLINK-4559,2022-101AZ,2026-06-28T22:00:01.999584,15.21636044,.00017643,53.1614,273.8557,73.7187,76.9209,0,U,53574,999,564,.33943262E-3,.7445E-4,0
STARLINK-4551,2022-101BA,2026-06-28T22:00:01.999584,15.22749737,.00017088,53.1608,273.7621,82.0595,117.4291,0,U,53575,999,564,.30583434E-3,.6905E-4,0
STARLINK-4581,2022-101BB,2026-06-28T13:07:19.933536,15.08829596,.00011237,53.1601,276.0968,93.6522,266.4598,0,U,53576,999,21400,.42880365E-4,.394E-5,0
STARLINK-4553,2022-101BC,2026-06-28T22:00:01.999584,15.20260336,.00008413,53.1611,273.8571,80.9089,69.0686,0,U,53577,999,574,.79216703E-4,.1418E-4,0
STARLINK-4556,2022-101BD,2026-06-28T22:00:01.999584,15.19023050,.00008923,53.1605,273.6835,76.1590,163.1583,0,U,53578,999,579,-.36709765E-3,-.8092E-4,0
STARLINK-4580,2022-101BE,2026-06-28T22:00:01.999584,15.19275996,.00014362,53.1606,273.7918,64.2263,117.9020,0,U,53579,999,579,.21386005E-3,.425E-4,0
